{
  "type": "FeatureCollection",
  "features": [
    {
      "type": "Feature",
      "properties": {
        "osm_id": "1058871121",
        "name": "Building_1058871121",
        "building": "yes",
        "amenity": null,
        "levels": null
      },
      "geometry": {
        "type": "Polygon",
        "coordinates": [
          [
            [
              76.9085602,
              10.8860836
            ],
            [
              76.908583,
              10.8859444
            ],
            [
              76.9082403,
              10.8858904
            ],
            [
              76.9082176,
              10.8860297
            ],
            [
              76.9085602,
              10.8860836
            ]
          ]
        ]
      }
    },
    {
      "type": "Feature",
      "properties": {
        "osm_id": "1058871122",
        "name": "Building_1058871122",
        "building": "yes",
        "amenity": null,
        "levels": null
      },
      "geometry": {
        "type": "Polygon",
        "coordinates": [
          [
            [
              76.9083898,
              10.8858678
            ],
            [
              76.9084708,
              10.8858804
            ],
            [
              76.908483,
              10.8858045
            ],
            [
              76.9091246,
              10.8859042
            ],
            [
              76.9091111,
              10.8859878
            ],
            [
              76.9092026,
              10.886002
            ],
            [
              76.9092597,
              10.8856473
            ],
            [
              76.9091594,
              10.8856318
            ],
            [
              76.9091309,
              10.8858087
            ],
            [
              76.908512,
              10.8857126
            ],
            [
              76.9085405,
              10.8855356
            ],
            [
              76.9084456,
              10.8855209
            ],
            [
              76.9083898,
              10.8858678
            ]
          ]
        ]
      }
    },
    {
      "type": "Feature",
      "properties": {
        "osm_id": "1474795577",
        "name": "ITC Coimbatore",
        "building": "industrial",
        "amenity": null,
        "levels": null
      },
      "geometry": {
        "type": "Polygon",
        "coordinates": [
          [
            [
              76.9050814,
              10.8857827
            ],
            [
              76.9063414,
              10.8860121
            ],
            [
              76.9065538,
              10.8849486
            ],
            [
              76.9052513,
              10.8846984
            ],
            [
              76.9050814,
              10.8857827
            ]
          ]
        ]
      }
    },
    {
      "type": "Feature",
      "properties": {
        "osm_id": "380829426",
        "name": "Aroyga Sadhanam - Boys Gym",
        "building": "yes",
        "amenity": null,
        "levels": null
      },
      "geometry": {
        "type": "Polygon",
        "coordinates": [
          [
            [
              76.8946809,
              10.9017549
            ],
            [
              76.894882,
              10.9017786
            ],
            [
              76.8949249,
              10.9013019
            ],
            [
              76.8948954,
              10.9012992
            ],
            [
              76.8949008,
              10.9012413
            ],
            [
              76.8947211,
              10.9012281
            ],
            [
              76.8946809,
              10.9017549
            ]
          ]
        ]
      }
    },
    {
      "type": "Feature",
      "properties": {
        "osm_id": "380829427",
        "name": "Amrita Guest House",
        "building": "yes",
        "amenity": null,
        "levels": null
      },
      "geometry": {
        "type": "Polygon",
        "coordinates": [
          [
            [
              76.898731,
              10.9016969
            ],
            [
              76.898959,
              10.9017022
            ],
            [
              76.8989643,
              10.9015863
            ],
            [
              76.8988758,
              10.9015811
            ],
            [
              76.8988812,
              10.9015073
            ],
            [
              76.8989107,
              10.9015178
            ],
            [
              76.8989456,
              10.9015126
            ],
            [
              76.8989724,
              10.9014862
            ],
            [
              76.8989804,
              10.9014467
            ],
            [
              76.898967,
              10.9014178
            ],
            [
              76.8989375,
              10.9013993
            ],
            [
              76.898908,
              10.901402
            ],
            [
              76.8988839,
              10.9014099
            ],
            [
              76.8988866,
              10.9013282
            ],
            [
              76.8989724,
              10.9013282
            ],
            [
              76.8989778,
              10.9012097
            ],
            [
              76.8987444,
              10.9012071
            ],
            [
              76.8987444,
              10.9012782
            ],
            [
              76.89868,
              10.9012808
            ],
            [
              76.89868,
              10.9013967
            ],
            [
              76.8987283,
              10.901402
            ],
            [
              76.8987256,
              10.9014994
            ],
            [
              76.8986747,
              10.9014994
            ],
            [
              76.898672,
              10.9016153
            ],
            [
              76.898731,
              10.9016179
            ],
            [
              76.898731,
              10.9016969
            ]
          ]
        ]
      }
    },
    {
      "type": "Feature",
      "properties": {
        "osm_id": "546394572",
        "name": "Building_546394572",
        "building": "residential",
        "amenity": null,
        "levels": null
      },
      "geometry": {
        "type": "Polygon",
        "coordinates": [
          [
            [
              76.8983623,
              10.9005291
            ],
            [
              76.8983543,
              10.9004135
            ],
            [
              76.8985148,
              10.900403
            ],
            [
              76.8985201,
              10.9005212
            ],
            [
              76.8983623,
              10.9005291
            ]
          ]
        ]
      }
    },
    {
      "type": "Feature",
      "properties": {
        "osm_id": "546394573",
        "name": "Building_546394573",
        "building": "residential",
        "amenity": null,
        "levels": null
      },
      "geometry": {
        "type": "Polygon",
        "coordinates": [
          [
            [
              76.8983222,
              10.9001534
            ],
            [
              76.8983141,
              10.9000484
            ],
            [
              76.8984773,
              10.9000274
            ],
            [
              76.898488,
              10.9001429
            ],
            [
              76.8983222,
              10.9001534
            ]
          ]
        ]
      }
    },
    {
      "type": "Feature",
      "properties": {
        "osm_id": "546394574",
        "name": "Building_546394574",
        "building": "residential",
        "amenity": null,
        "levels": null
      },
      "geometry": {
        "type": "Polygon",
        "coordinates": [
          [
            [
              76.8986646,
              10.9005107
            ],
            [
              76.8986512,
              10.900403
            ],
            [
              76.8988278,
              10.9003846
            ],
            [
              76.8988411,
              10.9004923
            ],
            [
              76.8986646,
              10.9005107
            ]
          ]
        ]
      }
    },
    {
      "type": "Feature",
      "properties": {
        "osm_id": "546394575",
        "name": "Building_546394575",
        "building": "residential",
        "amenity": null,
        "levels": null
      },
      "geometry": {
        "type": "Polygon",
        "coordinates": [
          [
            [
              76.8986352,
              10.9001219
            ],
            [
              76.8986298,
              10.9000169
            ],
            [
              76.8987903,
              10.8999985
            ],
            [
              76.8987983,
              10.9001062
            ],
            [
              76.8986352,
              10.9001219
            ]
          ]
        ]
      }
    },
    {
      "type": "Feature",
      "properties": {
        "osm_id": "546394576",
        "name": "Building_546394576",
        "building": "residential",
        "amenity": null,
        "levels": null
      },
      "geometry": {
        "type": "Polygon",
        "coordinates": [
          [
            [
              76.8988652,
              10.900093
            ],
            [
              76.8988652,
              10.9000116
            ],
            [
              76.8990284,
              10.900009
            ],
            [
              76.8990284,
              10.900093
            ],
            [
              76.8988652,
              10.900093
            ]
          ]
        ]
      }
    },
    {
      "type": "Feature",
      "properties": {
        "osm_id": "546394577",
        "name": "Building_546394577",
        "building": "residential",
        "amenity": null,
        "levels": null
      },
      "geometry": {
        "type": "Polygon",
        "coordinates": [
          [
            [
              76.8990632,
              10.900537
            ],
            [
              76.8990712,
              10.9004004
            ],
            [
              76.8991755,
              10.9004056
            ],
            [
              76.8991675,
              10.9005449
            ],
            [
              76.8990632,
              10.900537
            ]
          ]
        ]
      }
    },
    {
      "type": "Feature",
      "properties": {
        "osm_id": "546394578",
        "name": "Building_546394578",
        "building": "residential",
        "amenity": null,
        "levels": null
      },
      "geometry": {
        "type": "Polygon",
        "coordinates": [
          [
            [
              76.8990873,
              10.9002585
            ],
            [
              76.8990953,
              10.9000563
            ],
            [
              76.8991889,
              10.9000536
            ],
            [
              76.8991782,
              10.9002559
            ],
            [
              76.8990873,
              10.9002585
            ]
          ]
        ]
      }
    },
    {
      "type": "Feature",
      "properties": {
        "osm_id": "380702791",
        "name": "Gargi Bhavanam",
        "building": "yes",
        "amenity": null,
        "levels": null
      },
      "geometry": {
        "type": "Polygon",
        "coordinates": [
          [
            [
              76.8993326,
              10.9034163
            ],
            [
              76.900199,
              10.9034637
            ],
            [
              76.900258,
              10.9026183
            ],
            [
              76.8993756,
              10.9025761
            ],
            [
              76.8993326,
              10.9034163
            ]
          ]
        ]
      }
    },
    {
      "type": "Feature",
      "properties": {
        "osm_id": "380702796",
        "name": "Building_380702796",
        "building": "university",
        "amenity": null,
        "levels": null
      },
      "geometry": {
        "type": "Polygon",
        "coordinates": [
          [
            [
              76.89992,
              10.901707
            ],
            [
              76.9000166,
              10.9017096
            ],
            [
              76.9000166,
              10.9017544
            ],
            [
              76.900081,
              10.9017544
            ],
            [
              76.9000863,
              10.9016227
            ],
            [
              76.8999254,
              10.90162
            ],
            [
              76.89992,
              10.901707
            ]
          ]
        ]
      }
    },
    {
      "type": "Feature",
      "properties": {
        "osm_id": "380702805",
        "name": "Building_380702805",
        "building": "apartments",
        "amenity": null,
        "levels": null
      },
      "geometry": {
        "type": "Polygon",
        "coordinates": [
          [
            [
              76.8998342,
              10.9013514
            ],
            [
              76.9000166,
              10.9013672
            ],
            [
              76.9000247,
              10.9012381
            ],
            [
              76.8998396,
              10.9012276
            ],
            [
              76.8998342,
              10.9013514
            ]
          ]
        ]
      }
    },
    {
      "type": "Feature",
      "properties": {
        "osm_id": "380702806",
        "name": "Building_380702806",
        "building": "apartments",
        "amenity": null,
        "levels": null
      },
      "geometry": {
        "type": "Polygon",
        "coordinates": [
          [
            [
              76.8998369,
              10.9011539
            ],
            [
              76.9000327,
              10.9011723
            ],
            [
              76.9000407,
              10.9010353
            ],
            [
              76.8998423,
              10.9010248
            ],
            [
              76.8998369,
              10.9011539
            ]
          ]
        ]
      }
    },
    {
      "type": "Feature",
      "properties": {
        "osm_id": "380829425",
        "name": "Vasishta Bhavanam",
        "building": "yes",
        "amenity": null,
        "levels": null
      },
      "geometry": {
        "type": "Polygon",
        "coordinates": [
          [
            [
              76.895338,
              10.9018234
            ],
            [
              76.8956062,
              10.9018339
            ],
            [
              76.8956062,
              10.9018918
            ],
            [
              76.8957403,
              10.9019076
            ],
            [
              76.8957457,
              10.9018392
            ],
            [
              76.8963304,
              10.9018655
            ],
            [
              76.8963304,
              10.901934
            ],
            [
              76.8964645,
              10.9019445
            ],
            [
              76.8964645,
              10.9018813
            ],
            [
              76.8967059,
              10.9018866
            ],
            [
              76.8967327,
              10.9014546
            ],
            [
              76.8953595,
              10.901402
            ],
            [
              76.895338,
              10.9018234
            ]
          ]
        ]
      }
    },
    {
      "type": "Feature",
      "properties": {
        "osm_id": "385666025",
        "name": "Building_385666025",
        "building": "yes",
        "amenity": null,
        "levels": null
      },
      "geometry": {
        "type": "Polygon",
        "coordinates": [
          [
            [
              76.8983923,
              10.9087811
            ],
            [
              76.8987463,
              10.9088127
            ],
            [
              76.8987785,
              10.9084756
            ],
            [
              76.8984298,
              10.9084387
            ],
            [
              76.8983923,
              10.9087811
            ]
          ]
        ]
      }
    },
    {
      "type": "Feature",
      "properties": {
        "osm_id": "385666041",
        "name": "Building_385666041",
        "building": "yes",
        "amenity": null,
        "levels": null
      },
      "geometry": {
        "type": "Polygon",
        "coordinates": [
          [
            [
              76.8930762,
              10.9043511
            ],
            [
              76.8935536,
              10.9044617
            ],
            [
              76.8936233,
              10.9042142
            ],
            [
              76.8931083,
              10.9041035
            ],
            [
              76.8930762,
              10.9043511
            ]
          ]
        ]
      }
    },
    {
      "type": "Feature",
      "properties": {
        "osm_id": "385666042",
        "name": "Building_385666042",
        "building": "yes",
        "amenity": null,
        "levels": null
      },
      "geometry": {
        "type": "Polygon",
        "coordinates": [
          [
            [
              76.893103,
              10.9040193
            ],
            [
              76.8937413,
              10.9041615
            ],
            [
              76.8937789,
              10.9038349
            ],
            [
              76.8931298,
              10.9036927
            ],
            [
              76.893103,
              10.9040193
            ]
          ]
        ]
      }
    },
    {
      "type": "Feature",
      "properties": {
        "osm_id": "380702789",
        "name": "Academic Block 2",
        "building": "university",
        "amenity": null,
        "levels": null
      },
      "geometry": {
        "type": "Polygon",
        "coordinates": [
          [
            [
              76.8979164,
              10.9036296
            ],
            [
              76.8982705,
              10.9036691
            ],
            [
              76.8982759,
              10.9036138
            ],
            [
              76.8983134,
              10.9036217
            ],
            [
              76.8983241,
              10.9035164
            ],
            [
              76.8984743,
              10.9035348
            ],
            [
              76.8984636,
              10.9036323
            ],
            [
              76.8984985,
              10.9036402
            ],
            [
              76.8984904,
              10.9036876
            ],
            [
              76.8987962,
              10.9037324
            ],
            [
              76.8987801,
              10.9038825
            ],
            [
              76.8986354,
              10.903863
            ],
            [
              76.8984663,
              10.9038403
            ],
            [
              76.8984556,
              10.9039194
            ],
            [
              76.8987721,
              10.9039641
            ],
            [
              76.8987345,
              10.9043065
            ],
            [
              76.8983429,
              10.9042644
            ],
            [
              76.8983268,
              10.904454
            ],
            [
              76.898705,
              10.9044961
            ],
            [
              76.8986755,
              10.9048333
            ],
            [
              76.8993756,
              10.9049413
            ],
            [
              76.8993541,
              10.9050703
            ],
            [
              76.8990725,
              10.9050282
            ],
            [
              76.8990644,
              10.905094
            ],
            [
              76.898984,
              10.9050782
            ],
            [
              76.898992,
              10.9050045
            ],
            [
              76.8986943,
              10.9049597
            ],
            [
              76.8987023,
              10.9048886
            ],
            [
              76.8986084,
              10.9048754
            ],
            [
              76.898638,
              10.9046252
            ],
            [
              76.8981847,
              10.9045699
            ],
            [
              76.8982168,
              10.9042591
            ],
            [
              76.8978628,
              10.9042196
            ],
            [
              76.8978762,
              10.9040751
            ],
            [
              76.8978779,
              10.9040562
            ],
            [
              76.8978797,
              10.9040359
            ],
            [
              76.8978896,
              10.9039246
            ],
            [
              76.8979164,
              10.9036296
            ]
          ]
        ]
      }
    },
    {
      "type": "Feature",
      "properties": {
        "osm_id": "380702790",
        "name": "Central Library",
        "building": "yes",
        "amenity": "library",
        "levels": null
      },
      "geometry": {
        "type": "Polygon",
        "coordinates": [
          [
            [
              76.8987265,
              10.9046831
            ],
            [
              76.8989437,
              10.9047174
            ],
            [
              76.8989598,
              10.9045962
            ],
            [
              76.8989947,
              10.9046041
            ],
            [
              76.8989786,
              10.9047279
            ],
            [
              76.8991261,
              10.9047464
            ],
            [
              76.8991449,
              10.9046226
            ],
            [
              76.8991771,
              10.9046331
            ],
            [
              76.8991637,
              10.9047516
            ],
            [
              76.8993702,
              10.9047859
            ],
            [
              76.8994051,
              10.9045673
            ],
            [
              76.8992763,
              10.9045462
            ],
            [
              76.8992844,
              10.9045067
            ],
            [
              76.8993621,
              10.904454
            ],
            [
              76.8993058,
              10.9043934
            ],
            [
              76.8993112,
              10.9043487
            ],
            [
              76.8994346,
              10.9043618
            ],
            [
              76.8994668,
              10.9041406
            ],
            [
              76.8992575,
              10.9041169
            ],
            [
              76.8992468,
              10.9041775
            ],
            [
              76.8991771,
              10.9041643
            ],
            [
              76.8991851,
              10.9040853
            ],
            [
              76.8992334,
              10.9040458
            ],
            [
              76.8992341,
              10.904034
            ],
            [
              76.8992347,
              10.9040221
            ],
            [
              76.8991959,
              10.9039826
            ],
            [
              76.8991627,
              10.9039788
            ],
            [
              76.8991153,
              10.9039733
            ],
            [
              76.8990678,
              10.904007
            ],
            [
              76.8990671,
              10.9040278
            ],
            [
              76.8990912,
              10.9040563
            ],
            [
              76.8991169,
              10.9040764
            ],
            [
              76.8991047,
              10.9041538
            ],
            [
              76.8990349,
              10.9041406
            ],
            [
              76.8990403,
              10.9040853
            ],
            [
              76.8988284,
              10.9040537
            ],
            [
              76.8988016,
              10.9042617
            ],
            [
              76.8989169,
              10.9042775
            ],
            [
              76.8989062,
              10.9043329
            ],
            [
              76.8988472,
              10.9043803
            ],
            [
              76.8988928,
              10.9044461
            ],
            [
              76.8988847,
              10.9044909
            ],
            [
              76.898756,
              10.9044777
            ],
            [
              76.8987265,
              10.9046831
            ]
          ]
        ]
      }
    },
    {
      "type": "Feature",
      "properties": {
        "osm_id": "380829415",
        "name": "Academic Block 3 - International school of Law",
        "building": "university",
        "amenity": null,
        "levels": null
      },
      "geometry": {
        "type": "Polygon",
        "coordinates": [
          [
            [
              76.8969527,
              10.9064588
            ],
            [
              76.8974462,
              10.9064852
            ],
            [
              76.8974623,
              10.906206
            ],
            [
              76.897575,
              10.9062112
            ],
            [
              76.8975696,
              10.9064799
            ],
            [
              76.8980578,
              10.9065168
            ],
            [
              76.8980953,
              10.9059953
            ],
            [
              76.8969741,
              10.9059479
            ],
            [
              76.8969527,
              10.9064588
            ]
          ]
        ]
      }
    },
    {
      "type": "Feature",
      "properties": {
        "osm_id": "380829416",
        "name": "Building_380829416",
        "building": "university",
        "amenity": null,
        "levels": null
      },
      "geometry": {
        "type": "Polygon",
        "coordinates": [
          [
            [
              76.8947372,
              10.9055317
            ],
            [
              76.8952897,
              10.9057161
            ],
            [
              76.8953273,
              10.9055897
            ],
            [
              76.8947801,
              10.9053948
            ],
            [
              76.8947372,
              10.9055317
            ]
          ]
        ]
      }
    },
    {
      "type": "Feature",
      "properties": {
        "osm_id": "380829417",
        "name": "Building_380829417",
        "building": "university",
        "amenity": null,
        "levels": null
      },
      "geometry": {
        "type": "Polygon",
        "coordinates": [
          [
            [
              76.894941,
              10.9054
            ],
            [
              76.8954185,
              10.9055633
            ],
            [
              76.8954507,
              10.9054369
            ],
            [
              76.8953755,
              10.9054106
            ],
            [
              76.8953916,
              10.9053579
            ],
            [
              76.8954721,
              10.905379
            ],
            [
              76.8955258,
              10.905242
            ],
            [
              76.8950483,
              10.905084
            ],
            [
              76.894941,
              10.9054
            ]
          ]
        ]
      }
    },
    {
      "type": "Feature",
      "properties": {
        "osm_id": "380829418",
        "name": "Fabrication workshop",
        "building": "university",
        "amenity": null,
        "levels": null
      },
      "geometry": {
        "type": "Polygon",
        "coordinates": [
          [
            [
              76.8950644,
              10.9050208
            ],
            [
              76.8955472,
              10.9052051
            ],
            [
              76.8955901,
              10.9050682
            ],
            [
              76.8951127,
              10.9048891
            ],
            [
              76.8950644,
              10.9050208
            ]
          ]
        ]
      }
    },
    {
      "type": "Feature",
      "properties": {
        "osm_id": "380829419",
        "name": "Amrita Automative Research & Testing Centre",
        "building": "university",
        "amenity": null,
        "levels": null
      },
      "geometry": {
        "type": "Polygon",
        "coordinates": [
          [
            [
              76.8954399,
              10.9039251
            ],
            [
              76.8958905,
              10.9040357
            ],
            [
              76.895971,
              10.9036986
            ],
            [
              76.895515,
              10.9036038
            ],
            [
              76.8954399,
              10.9039251
            ]
          ]
        ]
      }
    },
    {
      "type": "Feature",
      "properties": {
        "osm_id": "380829420",
        "name": "Gauthama Bhavanam",
        "building": "yes",
        "amenity": null,
        "levels": null
      },
      "geometry": {
        "type": "Polygon",
        "coordinates": [
          [
            [
              76.8967703,
              10.903214
            ],
            [
              76.8971941,
              10.9031982
            ],
            [
              76.8971941,
              10.9031139
            ],
            [
              76.8975535,
              10.9031192
            ],
            [
              76.8975589,
              10.9023817
            ],
            [
              76.8967757,
              10.9023923
            ],
            [
              76.8967703,
              10.903214
            ]
          ]
        ]
      }
    },
    {
      "type": "Feature",
      "properties": {
        "osm_id": "380829421",
        "name": "Agasthya Bhavanam",
        "building": "yes",
        "amenity": null,
        "levels": null
      },
      "geometry": {
        "type": "Polygon",
        "coordinates": [
          [
            [
              76.8958691,
              10.9027347
            ],
            [
              76.8965396,
              10.9027347
            ],
            [
              76.8965557,
              10.902308
            ],
            [
              76.8958798,
              10.9023238
            ],
            [
              76.8958691,
              10.9027347
            ]
          ]
        ]
      }
    },
    {
      "type": "Feature",
      "properties": {
        "osm_id": "380829422",
        "name": "Agastya/Gautama Bhavanam Mess",
        "building": "university",
        "amenity": "fast_food",
        "levels": null
      },
      "geometry": {
        "type": "Polygon",
        "coordinates": [
          [
            [
              76.8960622,
              10.9032298
            ],
            [
              76.8961373,
              10.9032403
            ],
            [
              76.8961373,
              10.9032983
            ],
            [
              76.8962607,
              10.9032983
            ],
            [
              76.8962607,
              10.9032456
            ],
            [
              76.8963304,
              10.9032403
            ],
            [
              76.8963358,
              10.9028137
            ],
            [
              76.8960622,
              10.9028137
            ],
            [
              76.8960622,
              10.9032298
            ]
          ]
        ]
      }
    },
    {
      "type": "Feature",
      "properties": {
        "osm_id": "385666026",
        "name": "Building_385666026",
        "building": "yes",
        "amenity": null,
        "levels": null
      },
      "geometry": {
        "type": "Polygon",
        "coordinates": [
          [
            [
              76.8982367,
              10.9083018
            ],
            [
              76.8984835,
              10.9083281
            ],
            [
              76.898505,
              10.9081911
            ],
            [
              76.8982475,
              10.9081648
            ],
            [
              76.8982367,
              10.9083018
            ]
          ]
        ]
      }
    },
    {
      "type": "Feature",
      "properties": {
        "osm_id": "385666027",
        "name": "Building_385666027",
        "building": "residential",
        "amenity": null,
        "levels": null
      },
      "geometry": {
        "type": "Polygon",
        "coordinates": [
          [
            [
              76.8986927,
              10.9083281
            ],
            [
              76.8988858,
              10.9083439
            ],
            [
              76.8988966,
              10.9082228
            ],
            [
              76.8987088,
              10.9082017
            ],
            [
              76.8986927,
              10.9083281
            ]
          ]
        ]
      }
    },
    {
      "type": "Feature",
      "properties": {
        "osm_id": "385666032",
        "name": "Building_385666032",
        "building": "yes",
        "amenity": null,
        "levels": null
      },
      "geometry": {
        "type": "Polygon",
        "coordinates": [
          [
            [
              76.8982582,
              10.9080384
            ],
            [
              76.8985157,
              10.9080753
            ],
            [
              76.8985318,
              10.907933
            ],
            [
              76.8982743,
              10.9079014
            ],
            [
              76.8982582,
              10.9080384
            ]
          ]
        ]
      }
    },
    {
      "type": "Feature",
      "properties": {
        "osm_id": "385666033",
        "name": "Building_385666033",
        "building": "residential",
        "amenity": null,
        "levels": null
      },
      "geometry": {
        "type": "Polygon",
        "coordinates": [
          [
            [
              76.8989556,
              10.9083492
            ],
            [
              76.8991326,
              10.9083702
            ],
            [
              76.8991487,
              10.9082438
            ],
            [
              76.8989663,
              10.908228
            ],
            [
              76.8989556,
              10.9083492
            ]
          ]
        ]
      }
    },
    {
      "type": "Feature",
      "properties": {
        "osm_id": "385666034",
        "name": "Building_385666034",
        "building": "residential",
        "amenity": null,
        "levels": null
      },
      "geometry": {
        "type": "Polygon",
        "coordinates": [
          [
            [
              76.8992399,
              10.9083702
            ],
            [
              76.8994008,
              10.9083913
            ],
            [
              76.8994276,
              10.9082702
            ],
            [
              76.8992506,
              10.9082491
            ],
            [
              76.8992399,
              10.9083702
            ]
          ]
        ]
      }
    },
    {
      "type": "Feature",
      "properties": {
        "osm_id": "385666035",
        "name": "Building_385666035",
        "building": "residential",
        "amenity": null,
        "levels": null
      },
      "geometry": {
        "type": "Polygon",
        "coordinates": [
          [
            [
              76.8992506,
              10.9081543
            ],
            [
              76.899433,
              10.9081806
            ],
            [
              76.8994491,
              10.9080437
            ],
            [
              76.8992667,
              10.9080226
            ],
            [
              76.8992506,
              10.9081543
            ]
          ]
        ]
      }
    },
    {
      "type": "Feature",
      "properties": {
        "osm_id": "385666036",
        "name": "Building_385666036",
        "building": "yes",
        "amenity": null,
        "levels": null
      },
      "geometry": {
        "type": "Polygon",
        "coordinates": [
          [
            [
              76.8994652,
              10.9081964
            ],
            [
              76.8995188,
              10.908207
            ],
            [
              76.8995349,
              10.9080226
            ],
            [
              76.8994813,
              10.9080121
            ],
            [
              76.8994652,
              10.9081964
            ]
          ]
        ]
      }
    },
    {
      "type": "Feature",
      "properties": {
        "osm_id": "385666037",
        "name": "Building_385666037",
        "building": "yes",
        "amenity": null,
        "levels": null
      },
      "geometry": {
        "type": "Polygon",
        "coordinates": [
          [
            [
              76.8957423,
              10.9043037
            ],
            [
              76.8958925,
              10.9043142
            ],
            [
              76.8959086,
              10.904172
            ],
            [
              76.895753,
              10.9041562
            ],
            [
              76.8957423,
              10.9043037
            ]
          ]
        ]
      }
    },
    {
      "type": "Feature",
      "properties": {
        "osm_id": "385666038",
        "name": "Building_385666038",
        "building": "yes",
        "amenity": null,
        "levels": null
      },
      "geometry": {
        "type": "Polygon",
        "coordinates": [
          [
            [
              76.8969278,
              10.9040087
            ],
            [
              76.8970136,
              10.9040403
            ],
            [
              76.8970995,
              10.9038086
            ],
            [
              76.8970083,
              10.9037822
            ],
            [
              76.8969278,
              10.9040087
            ]
          ]
        ]
      }
    },
    {
      "type": "Feature",
      "properties": {
        "osm_id": "385666039",
        "name": "Building_385666039",
        "building": "yes",
        "amenity": null,
        "levels": null
      },
      "geometry": {
        "type": "Polygon",
        "coordinates": [
          [
            [
              76.8952541,
              10.9041141
            ],
            [
              76.8954794,
              10.9041141
            ],
            [
              76.8954848,
              10.9039929
            ],
            [
              76.8952702,
              10.9039877
            ],
            [
              76.8952541,
              10.9041141
            ]
          ]
        ]
      }
    },
    {
      "type": "Feature",
      "properties": {
        "osm_id": "385666040",
        "name": "Building_385666040",
        "building": "yes",
        "amenity": null,
        "levels": null
      },
      "geometry": {
        "type": "Polygon",
        "coordinates": [
          [
            [
              76.8957315,
              10.9044301
            ],
            [
              76.8958388,
              10.9044565
            ],
            [
              76.8958764,
              10.9043406
            ],
            [
              76.8957423,
              10.9043037
            ],
            [
              76.8957315,
              10.9044301
            ]
          ]
        ]
      }
    },
    {
      "type": "Feature",
      "properties": {
        "osm_id": "385666044",
        "name": "Building_385666044",
        "building": "yes",
        "amenity": null,
        "levels": null
      },
      "geometry": {
        "type": "Polygon",
        "coordinates": [
          [
            [
              76.8946533,
              10.905747
            ],
            [
              76.8947981,
              10.9057944
            ],
            [
              76.8948518,
              10.9056364
            ],
            [
              76.8947069,
              10.9055785
            ],
            [
              76.8946533,
              10.905747
            ]
          ]
        ]
      }
    },
    {
      "type": "Feature",
      "properties": {
        "osm_id": "385666045",
        "name": "Building_385666045",
        "building": "yes",
        "amenity": null,
        "levels": null
      },
      "geometry": {
        "type": "Polygon",
        "coordinates": [
          [
            [
              76.8949215,
              10.9060051
            ],
            [
              76.8950503,
              10.9060631
            ],
            [
              76.89512,
              10.9058102
            ],
            [
              76.8949859,
              10.9057523
            ],
            [
              76.8949215,
              10.9060051
            ]
          ]
        ]
      }
    },
    {
      "type": "Feature",
      "properties": {
        "osm_id": "385666046",
        "name": "Building_385666046",
        "building": "yes",
        "amenity": null,
        "levels": null
      },
      "geometry": {
        "type": "Polygon",
        "coordinates": [
          [
            [
              76.8945621,
              10.9059419
            ],
            [
              76.8946962,
              10.9059683
            ],
            [
              76.8947123,
              10.9058155
            ],
            [
              76.8945728,
              10.9057892
            ],
            [
              76.8945621,
              10.9059419
            ]
          ]
        ]
      }
    },
    {
      "type": "Feature",
      "properties": {
        "osm_id": "385666047",
        "name": "Building_385666047",
        "building": "yes",
        "amenity": null,
        "levels": null
      },
      "geometry": {
        "type": "Polygon",
        "coordinates": [
          [
            [
              76.8952487,
              10.9045618
            ],
            [
              76.8956725,
              10.9046303
            ],
            [
              76.895694,
              10.9044249
            ],
            [
              76.8952702,
              10.9043827
            ],
            [
              76.8952487,
              10.9045618
            ]
          ]
        ]
      }
    },
    {
      "type": "Feature",
      "properties": {
        "osm_id": "385666049",
        "name": "Building_385666049",
        "building": "yes",
        "amenity": null,
        "levels": null
      },
      "geometry": {
        "type": "Polygon",
        "coordinates": [
          [
            [
              76.8952648,
              10.9042721
            ],
            [
              76.8956296,
              10.9043037
            ],
            [
              76.8956457,
              10.9041352
            ],
            [
              76.8952756,
              10.9041457
            ],
            [
              76.8952648,
              10.9042721
            ]
          ]
        ]
      }
    },
    {
      "type": "Feature",
      "properties": {
        "osm_id": "1080744354",
        "name": "IT Canteen",
        "building": "yes",
        "amenity": "restaurant",
        "levels": null
      },
      "geometry": {
        "type": "Polygon",
        "coordinates": [
          [
            [
              76.8979277,
              10.9050545
            ],
            [
              76.8981377,
              10.9051081
            ],
            [
              76.8982091,
              10.9048029
            ],
            [
              76.8980117,
              10.9047369
            ],
            [
              76.8979277,
              10.9050545
            ]
          ]
        ]
      }
    },
    {
      "type": "Feature",
      "properties": {
        "osm_id": "1256941484",
        "name": "Adithi Bhavanam",
        "building": "yes",
        "amenity": null,
        "levels": null
      },
      "geometry": {
        "type": "Polygon",
        "coordinates": [
          [
            [
              76.8991636,
              10.9070117
            ],
            [
              76.8986772,
              10.9069832
            ],
            [
              76.8986325,
              10.9071687
            ],
            [
              76.8988619,
              10.9072036
            ],
            [
              76.8988539,
              10.9072747
            ],
            [
              76.8984211,
              10.9072312
            ],
            [
              76.898407,
              10.907336
            ],
            [
              76.8983708,
              10.9074566
            ],
            [
              76.8983627,
              10.9075851
            ],
            [
              76.8983486,
              10.9076918
            ],
            [
              76.8992847,
              10.9077965
            ],
            [
              76.8992967,
              10.9076443
            ],
            [
              76.8993008,
              10.907506
            ],
            [
              76.8993209,
              10.9073993
            ],
            [
              76.899333,
              10.9072807
            ],
            [
              76.8989102,
              10.9072807
            ],
            [
              76.8989022,
              10.9072055
            ],
            [
              76.8991921,
              10.9072233
            ],
            [
              76.8991636,
              10.9070117
            ]
          ]
        ]
      }
    },
    {
      "type": "Feature",
      "properties": {
        "osm_id": "380702797",
        "name": "Building_380702797",
        "building": "university",
        "amenity": null,
        "levels": null
      },
      "geometry": {
        "type": "Polygon",
        "coordinates": [
          [
            [
              76.9001454,
              10.9017122
            ],
            [
              76.9002446,
              10.9017175
            ],
            [
              76.9002446,
              10.9017649
            ],
            [
              76.9003143,
              10.9017675
            ],
            [
              76.9003224,
              10.9016253
            ],
            [
              76.9001507,
              10.9016148
            ],
            [
              76.9001454,
              10.9017122
            ]
          ]
        ]
      }
    },
    {
      "type": "Feature",
      "properties": {
        "osm_id": "380702799",
        "name": "Building_380702799",
        "building": "university",
        "amenity": null,
        "levels": null
      },
      "geometry": {
        "type": "Polygon",
        "coordinates": [
          [
            [
              76.9005638,
              10.9017491
            ],
            [
              76.9006952,
              10.9017544
            ],
            [
              76.9007033,
              10.9016069
            ],
            [
              76.9005691,
              10.9016095
            ],
            [
              76.9005638,
              10.9017491
            ]
          ]
        ]
      }
    },
    {
      "type": "Feature",
      "properties": {
        "osm_id": "380702800",
        "name": "Building_380702800",
        "building": "apartments",
        "amenity": null,
        "levels": null
      },
      "geometry": {
        "type": "Polygon",
        "coordinates": [
          [
            [
              76.900148,
              10.9014515
            ],
            [
              76.9003841,
              10.9014673
            ],
            [
              76.9003921,
              10.9013277
            ],
            [
              76.9001534,
              10.9013145
            ],
            [
              76.900148,
              10.9014515
            ]
          ]
        ]
      }
    },
    {
      "type": "Feature",
      "properties": {
        "osm_id": "380702801",
        "name": "Building_380702801",
        "building": "apartments",
        "amenity": null,
        "levels": null
      },
      "geometry": {
        "type": "Polygon",
        "coordinates": [
          [
            [
              76.9004538,
              10.9014673
            ],
            [
              76.9006845,
              10.9014805
            ],
            [
              76.9006925,
              10.9013435
            ],
            [
              76.9004592,
              10.9013356
            ],
            [
              76.9004538,
              10.9014673
            ]
          ]
        ]
      }
    },
    {
      "type": "Feature",
      "properties": {
        "osm_id": "380702802",
        "name": "Building_380702802",
        "building": "apartments",
        "amenity": null,
        "levels": null
      },
      "geometry": {
        "type": "Polygon",
        "coordinates": [
          [
            [
              76.9001561,
              10.9012408
            ],
            [
              76.9002982,
              10.901246
            ],
            [
              76.900309,
              10.9010169
            ],
            [
              76.9001668,
              10.9010143
            ],
            [
              76.9001561,
              10.9012408
            ]
          ]
        ]
      }
    },
    {
      "type": "Feature",
      "properties": {
        "osm_id": "380702803",
        "name": "Building_380702803",
        "building": "apartments",
        "amenity": null,
        "levels": null
      },
      "geometry": {
        "type": "Polygon",
        "coordinates": [
          [
            [
              76.9003975,
              10.9012329
            ],
            [
              76.9005343,
              10.9012434
            ],
            [
              76.9005423,
              10.9010459
            ],
            [
              76.9004055,
              10.9010353
            ],
            [
              76.9003975,
              10.9012329
            ]
          ]
        ]
      }
    },
    {
      "type": "Feature",
      "properties": {
        "osm_id": "380702804",
        "name": "Building_380702804",
        "building": "university",
        "amenity": null,
        "levels": null
      },
      "geometry": {
        "type": "Polygon",
        "coordinates": [
          [
            [
              76.9001936,
              10.9007272
            ],
            [
              76.9002285,
              10.9007667
            ],
            [
              76.9002526,
              10.9007456
            ],
            [
              76.9003358,
              10.9008352
            ],
            [
              76.900309,
              10.9008668
            ],
            [
              76.9003438,
              10.900901
            ],
            [
              76.9004458,
              10.9008141
            ],
            [
              76.9002848,
              10.9006245
            ],
            [
              76.9001936,
              10.9007272
            ]
          ]
        ]
      }
    },
    {
      "type": "Feature",
      "properties": {
        "osm_id": "380702807",
        "name": "Maitheyi Bhavanam",
        "building": "yes",
        "amenity": null,
        "levels": null
      },
      "geometry": {
        "type": "Polygon",
        "coordinates": [
          [
            [
              76.9009554,
              10.9010564
            ],
            [
              76.9015723,
              10.9010248
            ],
            [
              76.9015455,
              10.9004533
            ],
            [
              76.9009905,
              10.9004912
            ],
            [
              76.9009688,
              10.9004927
            ],
            [
              76.9009286,
              10.9004954
            ],
            [
              76.9009554,
              10.9010564
            ]
          ]
        ]
      }
    },
    {
      "type": "Feature",
      "properties": {
        "osm_id": "380702808",
        "name": "Building_380702808",
        "building": "university",
        "amenity": null,
        "levels": null
      },
      "geometry": {
        "type": "Polygon",
        "coordinates": [
          [
            [
              76.9005557,
              10.9004901
            ],
            [
              76.900604,
              10.9004849
            ],
            [
              76.9006067,
              10.9005165
            ],
            [
              76.9007837,
              10.9005112
            ],
            [
              76.9007837,
              10.9004243
            ],
            [
              76.9009634,
              10.9004085
            ],
            [
              76.9009688,
              10.9004927
            ],
            [
              76.9009905,
              10.9004912
            ],
            [
              76.9009849,
              10.9003268
            ],
            [
              76.9008454,
              10.9003374
            ],
            [
              76.9008454,
              10.9003874
            ],
            [
              76.9008105,
              10.9003874
            ],
            [
              76.9008105,
              10.900311
            ],
            [
              76.9005504,
              10.9003216
            ],
            [
              76.9005557,
              10.9004901
            ]
          ]
        ]
      }
    },
    {
      "type": "Feature",
      "properties": {
        "osm_id": "380702809",
        "name": "Central Kitchen",
        "building": "university",
        "amenity": null,
        "levels": null
      },
      "geometry": {
        "type": "Polygon",
        "coordinates": [
          [
            [
              76.9010519,
              10.90152
            ],
            [
              76.9014918,
              10.9014936
            ],
            [
              76.9014865,
              10.9012882
            ],
            [
              76.9010439,
              10.9013277
            ],
            [
              76.9010519,
              10.90152
            ]
          ]
        ]
      }
    },
    {
      "type": "Feature",
      "properties": {
        "osm_id": "380702810",
        "name": "Building_380702810",
        "building": "university",
        "amenity": null,
        "levels": null
      },
      "geometry": {
        "type": "Polygon",
        "coordinates": [
          [
            [
              76.90106,
              10.9012961
            ],
            [
              76.9014865,
              10.9012619
            ],
            [
              76.9014811,
              10.901117
            ],
            [
              76.9010519,
              10.9011565
            ],
            [
              76.90106,
              10.9012961
            ]
          ]
        ]
      }
    },
    {
      "type": "Feature",
      "properties": {
        "osm_id": "380925361",
        "name": "Building_380925361",
        "building": "university",
        "amenity": null,
        "levels": null
      },
      "geometry": {
        "type": "Polygon",
        "coordinates": [
          [
            [
              76.9015461,
              10.9000455
            ],
            [
              76.9016856,
              10.9000613
            ],
            [
              76.9016695,
              10.9002509
            ],
            [
              76.9018197,
              10.9002667
            ],
            [
              76.9018626,
              10.899819
            ],
            [
              76.9015622,
              10.8998031
            ],
            [
              76.9015461,
              10.9000455
            ]
          ]
        ]
      }
    },
    {
      "type": "Feature",
      "properties": {
        "osm_id": "380925364",
        "name": "Academic Block 1 - School of Engineering",
        "building": "university",
        "amenity": null,
        "levels": null
      },
      "geometry": {
        "type": "Polygon",
        "coordinates": [
          [
            [
              76.9022006,
              10.9003404
            ],
            [
              76.9021952,
              10.9004721
            ],
            [
              76.9024098,
              10.9004932
            ],
            [
              76.9025922,
              10.9007144
            ],
            [
              76.902501,
              10.9007935
            ],
            [
              76.9025868,
              10.9009041
            ],
            [
              76.9027639,
              10.9007408
            ],
            [
              76.9029355,
              10.9009304
            ],
            [
              76.9030375,
              10.9008514
            ],
            [
              76.902957,
              10.9007513
            ],
            [
              76.9031984,
              10.9005617
            ],
            [
              76.9033861,
              10.9005828
            ],
            [
              76.9034022,
              10.9004563
            ],
            [
              76.903193,
              10.90043
            ],
            [
              76.9030267,
              10.9002298
            ],
            [
              76.9029463,
              10.9002878
            ],
            [
              76.9029516,
              10.9002351
            ],
            [
              76.9028873,
              10.9002298
            ],
            [
              76.902898,
              10.9001245
            ],
            [
              76.9027531,
              10.9001139
            ],
            [
              76.9027424,
              10.9002193
            ],
            [
              76.9026888,
              10.9002088
            ],
            [
              76.9026888,
              10.9002667
            ],
            [
              76.9026351,
              10.9001877
            ],
            [
              76.9024098,
              10.9003668
            ],
            [
              76.9022006,
              10.9003404
            ]
          ]
        ]
      }
    },
    {
      "type": "Feature",
      "properties": {
        "osm_id": "380925366",
        "name": "Yagnavalkya Bhavanam",
        "building": "yes",
        "amenity": null,
        "levels": "3"
      },
      "geometry": {
        "type": "Polygon",
        "coordinates": [
          [
            [
              76.9045717,
              10.9016732
            ],
            [
              76.9050652,
              10.9016257
            ],
            [
              76.9050384,
              10.9011569
            ],
            [
              76.9045341,
              10.9012043
            ],
            [
              76.9045717,
              10.9016732
            ]
          ]
        ]
      }
    },
    {
      "type": "Feature",
      "properties": {
        "osm_id": "380925368",
        "name": "Nachiketas Bhavanam",
        "building": "yes",
        "amenity": null,
        "levels": "3"
      },
      "geometry": {
        "type": "Polygon",
        "coordinates": [
          [
            [
              76.90462,
              10.9007513
            ],
            [
              76.9048989,
              10.9007671
            ],
            [
              76.9049418,
              10.9002667
            ],
            [
              76.9046736,
              10.9002509
            ],
            [
              76.90462,
              10.9007513
            ]
          ]
        ]
      }
    },
    {
      "type": "Feature",
      "properties": {
        "osm_id": "380925370",
        "name": "Amriteshwari Hall",
        "building": "university",
        "amenity": null,
        "levels": null
      },
      "geometry": {
        "type": "Polygon",
        "coordinates": [
          [
            [
              76.9036007,
              10.900567
            ],
            [
              76.9040245,
              10.9006038
            ],
            [
              76.9040406,
              10.9004142
            ],
            [
              76.9036114,
              10.9003773
            ],
            [
              76.9036007,
              10.900567
            ]
          ]
        ]
      }
    },
    {
      "type": "Feature",
      "properties": {
        "osm_id": "380925371",
        "name": "Building_380925371",
        "building": "university",
        "amenity": null,
        "levels": null
      },
      "geometry": {
        "type": "Polygon",
        "coordinates": [
          [
            [
              76.9040245,
              10.9017838
            ],
            [
              76.9043517,
              10.9018048
            ],
            [
              76.9043625,
              10.9016468
            ],
            [
              76.9040299,
              10.9016363
            ],
            [
              76.9040245,
              10.9017838
            ]
          ]
        ]
      }
    },
    {
      "type": "Feature",
      "properties": {
        "osm_id": "380925373",
        "name": "Building_380925373",
        "building": "university",
        "amenity": null,
        "levels": null
      },
      "geometry": {
        "type": "Polygon",
        "coordinates": [
          [
            [
              76.9041908,
              10.9015941
            ],
            [
              76.9044161,
              10.9016205
            ],
            [
              76.9044698,
              10.9011464
            ],
            [
              76.9042284,
              10.9011201
            ],
            [
              76.9041908,
              10.9015941
            ]
          ]
        ]
      }
    },
    {
      "type": "Feature",
      "properties": {
        "osm_id": "380926299",
        "name": "Building_380926299",
        "building": "university",
        "amenity": null,
        "levels": null
      },
      "geometry": {
        "type": "Polygon",
        "coordinates": [
          [
            [
              76.9021325,
              10.9015655
            ],
            [
              76.903318,
              10.9017025
            ],
            [
              76.9033609,
              10.9012705
            ],
            [
              76.9021754,
              10.9011336
            ],
            [
              76.9021325,
              10.9015655
            ]
          ]
        ]
      }
    },
    {
      "type": "Feature",
      "properties": {
        "osm_id": "380926300",
        "name": "Building_380926300",
        "building": "university",
        "amenity": null,
        "levels": null
      },
      "geometry": {
        "type": "Polygon",
        "coordinates": [
          [
            [
              76.9033609,
              10.9016814
            ],
            [
              76.903715,
              10.9017236
            ],
            [
              76.9037901,
              10.9009808
            ],
            [
              76.9034307,
              10.9009439
            ],
            [
              76.9033609,
              10.9016814
            ]
          ]
        ]
      }
    },
    {
      "type": "Feature",
      "properties": {
        "osm_id": "380926301",
        "name": "Building_380926301",
        "building": "university",
        "amenity": null,
        "levels": null
      },
      "geometry": {
        "type": "Polygon",
        "coordinates": [
          [
            [
              76.9016819,
              10.901397
            ],
            [
              76.9018696,
              10.9013864
            ],
            [
              76.9018535,
              10.9011178
            ],
            [
              76.9016604,
              10.9011389
            ],
            [
              76.9016819,
              10.901397
            ]
          ]
        ]
      }
    },
    {
      "type": "Feature",
      "properties": {
        "osm_id": "380926302",
        "name": "Building_380926302",
        "building": "university",
        "amenity": null,
        "levels": null
      },
      "geometry": {
        "type": "Polygon",
        "coordinates": [
          [
            [
              76.901757,
              10.9009808
            ],
            [
              76.9019125,
              10.9010019
            ],
            [
              76.9019555,
              10.9006384
            ],
            [
              76.9017892,
              10.9006121
            ],
            [
              76.901757,
              10.9009808
            ]
          ]
        ]
      }
    },
    {
      "type": "Feature",
      "properties": {
        "osm_id": "531088187",
        "name": "Dhanlaxmi Bank",
        "building": "yes",
        "amenity": "bank",
        "levels": null
      },
      "geometry": {
        "type": "Polygon",
        "coordinates": [
          [
            [
              76.9003172,
              10.8997115
            ],
            [
              76.9003493,
              10.8995471
            ],
            [
              76.9004145,
              10.8995698
            ],
            [
              76.9003841,
              10.8997262
            ],
            [
              76.9003172,
              10.8997115
            ]
          ]
        ]
      }
    },
    {
      "type": "Feature",
      "properties": {
        "osm_id": "531088194",
        "name": "Building_531088194",
        "building": "yes",
        "amenity": null,
        "levels": null
      },
      "geometry": {
        "type": "Polygon",
        "coordinates": [
          [
            [
              76.900303,
              10.8997674
            ],
            [
              76.9003131,
              10.8997263
            ],
            [
              76.9003725,
              10.8997404
            ],
            [
              76.9003638,
              10.8997816
            ],
            [
              76.900303,
              10.8997674
            ]
          ]
        ]
      }
    },
    {
      "type": "Feature",
      "properties": {
        "osm_id": "546394562",
        "name": "Main Canteen",
        "building": "yes",
        "amenity": "restaurant",
        "levels": null
      },
      "geometry": {
        "type": "Polygon",
        "coordinates": [
          [
            [
              76.9035412,
              10.9001677
            ],
            [
              76.9035466,
              10.9001104
            ],
            [
              76.9035979,
              10.9001104
            ],
            [
              76.9036731,
              10.9000378
            ],
            [
              76.9037801,
              10.9000382
            ],
            [
              76.9038421,
              10.9001069
            ],
            [
              76.9038385,
              10.9002025
            ],
            [
              76.9037837,
              10.900265
            ],
            [
              76.9036704,
              10.900265
            ],
            [
              76.9035908,
              10.9001729
            ],
            [
              76.9035412,
              10.9001677
            ]
          ]
        ]
      }
    },
    {
      "type": "Feature",
      "properties": {
        "osm_id": "546394563",
        "name": "Building_546394563",
        "building": "yes",
        "amenity": null,
        "levels": null
      },
      "geometry": {
        "type": "Polygon",
        "coordinates": [
          [
            [
              76.9040761,
              10.9001872
            ],
            [
              76.9040761,
              10.9001148
            ],
            [
              76.9038602,
              10.9001095
            ],
            [
              76.9038589,
              10.9001793
            ],
            [
              76.9040761,
              10.9001872
            ]
          ]
        ]
      }
    },
    {
      "type": "Feature",
      "properties": {
        "osm_id": "546394564",
        "name": "Building_546394564",
        "building": "yes",
        "amenity": "toilets",
        "levels": null
      },
      "geometry": {
        "type": "Polygon",
        "coordinates": [
          [
            [
              76.9042255,
              10.9002102
            ],
            [
              76.9042317,
              10.9001195
            ],
            [
              76.9043318,
              10.900127
            ],
            [
              76.9043226,
              10.9002193
            ],
            [
              76.9042255,
              10.9002102
            ]
          ]
        ]
      }
    },
    {
      "type": "Feature",
      "properties": {
        "osm_id": "546394565",
        "name": "Building_546394565",
        "building": "yes",
        "amenity": null,
        "levels": null
      },
      "geometry": {
        "type": "Polygon",
        "coordinates": [
          [
            [
              76.903669,
              10.8997628
            ],
            [
              76.9036721,
              10.8996947
            ],
            [
              76.9039201,
              10.8996977
            ],
            [
              76.9039201,
              10.8997673
            ],
            [
              76.903669,
              10.8997628
            ]
          ]
        ]
      }
    },
    {
      "type": "Feature",
      "properties": {
        "osm_id": "546394580",
        "name": "Building_546394580",
        "building": "yes",
        "amenity": null,
        "levels": null
      },
      "geometry": {
        "type": "Polygon",
        "coordinates": [
          [
            [
              76.9003896,
              10.8993609
            ],
            [
              76.9003914,
              10.8992758
            ],
            [
              76.90047,
              10.8992749
            ],
            [
              76.9004647,
              10.8993642
            ],
            [
              76.9003896,
              10.8993609
            ]
          ]
        ]
      }
    },
    {
      "type": "Feature",
      "properties": {
        "osm_id": "546394581",
        "name": "Building_546394581",
        "building": "yes",
        "amenity": null,
        "levels": null
      },
      "geometry": {
        "type": "Polygon",
        "coordinates": [
          [
            [
              76.9003967,
              10.8991891
            ],
            [
              76.9003923,
              10.8992506
            ],
            [
              76.90047,
              10.8992524
            ],
            [
              76.9004735,
              10.8991874
            ],
            [
              76.9003967,
              10.8991891
            ]
          ]
        ]
      }
    },
    {
      "type": "Feature",
      "properties": {
        "osm_id": "380702798",
        "name": "Building_380702798",
        "building": "university",
        "amenity": null,
        "levels": null
      },
      "geometry": {
        "type": "Polygon",
        "coordinates": [
          [
            [
              76.9005584,
              10.9019677
            ],
            [
              76.9006791,
              10.9019782
            ],
            [
              76.9006872,
              10.9018466
            ],
            [
              76.9005665,
              10.901836
            ],
            [
              76.9005584,
              10.9019677
            ]
          ]
        ]
      }
    },
    {
      "type": "Feature",
      "properties": {
        "osm_id": "380702842",
        "name": "Building_380702842",
        "building": "university",
        "amenity": null,
        "levels": null
      },
      "geometry": {
        "type": "Polygon",
        "coordinates": [
          [
            [
              76.9018083,
              10.9019256
            ],
            [
              76.9019022,
              10.9019308
            ],
            [
              76.9019183,
              10.9016648
            ],
            [
              76.9016152,
              10.9016543
            ],
            [
              76.9016125,
              10.9017412
            ],
            [
              76.9018217,
              10.9017465
            ],
            [
              76.9018184,
              10.9017901
            ],
            [
              76.9018083,
              10.9019256
            ]
          ]
        ]
      }
    },
    {
      "type": "Feature",
      "properties": {
        "osm_id": "380925375",
        "name": "Vyasa Maharishi Bhavanam",
        "building": "yes",
        "amenity": null,
        "levels": "3"
      },
      "geometry": {
        "type": "Polygon",
        "coordinates": [
          [
            [
              76.9053924,
              10.9014783
            ],
            [
              76.9058741,
              10.9020195
            ],
            [
              76.9059068,
              10.9019883
            ],
            [
              76.9059696,
              10.9020545
            ],
            [
              76.9061488,
              10.9019102
            ],
            [
              76.9060859,
              10.9018297
            ],
            [
              76.906115,
              10.9018041
            ],
            [
              76.9056338,
              10.9012517
            ],
            [
              76.905566,
              10.9013214
            ],
            [
              76.9055387,
              10.9013255
            ],
            [
              76.9054711,
              10.9013855
            ],
            [
              76.9054726,
              10.9014031
            ],
            [
              76.9053924,
              10.9014783
            ]
          ]
        ]
      }
    },
    {
      "type": "Feature",
      "properties": {
        "osm_id": "531088134",
        "name": "Amrita Boys Gym",
        "building": "yes",
        "amenity": null,
        "levels": null
      },
      "geometry": {
        "type": "Polygon",
        "coordinates": [
          [
            [
              76.9020157,
              10.9019962
            ],
            [
              76.9020471,
              10.9017061
            ],
            [
              76.9021665,
              10.9017102
            ],
            [
              76.9021403,
              10.9020075
            ],
            [
              76.9020157,
              10.9019962
            ]
          ]
        ]
      }
    },
    {
      "type": "Feature",
      "properties": {
        "osm_id": "380702792",
        "name": "Building_380702792",
        "building": "university",
        "amenity": null,
        "levels": null
      },
      "geometry": {
        "type": "Polygon",
        "coordinates": [
          [
            [
              76.9000086,
              10.9024339
            ],
            [
              76.9002553,
              10.9024497
            ],
            [
              76.9002714,
              10.9021336
            ],
            [
              76.900022,
              10.9021257
            ],
            [
              76.9000086,
              10.9024339
            ]
          ]
        ]
      }
    },
    {
      "type": "Feature",
      "properties": {
        "osm_id": "380829429",
        "name": "Hostel",
        "building": "university",
        "amenity": null,
        "levels": null
      },
      "geometry": {
        "type": "Polygon",
        "coordinates": [
          [
            [
              76.9003614,
              10.9045295
            ],
            [
              76.900694,
              10.9045637
            ],
            [
              76.9007316,
              10.9042345
            ],
            [
              76.9003963,
              10.9042003
            ],
            [
              76.9003614,
              10.9045295
            ]
          ]
        ]
      }
    },
    {
      "type": "Feature",
      "properties": {
        "osm_id": "380829430",
        "name": "Building_380829430",
        "building": "university",
        "amenity": null,
        "levels": null
      },
      "geometry": {
        "type": "Polygon",
        "coordinates": [
          [
            [
              76.9000024,
              10.9043623
            ],
            [
              76.9002116,
              10.9043834
            ],
            [
              76.9002196,
              10.904286
            ],
            [
              76.9000131,
              10.9042623
            ],
            [
              76.9000024,
              10.9043623
            ]
          ]
        ]
      }
    },
    {
      "type": "Feature",
      "properties": {
        "osm_id": "380829431",
        "name": "Building_380829431",
        "building": "university",
        "amenity": null,
        "levels": null
      },
      "geometry": {
        "type": "Polygon",
        "coordinates": [
          [
            [
              76.9001123,
              10.9042544
            ],
            [
              76.9002464,
              10.9042754
            ],
            [
              76.9002679,
              10.9041622
            ],
            [
              76.900056,
              10.9041437
            ],
            [
              76.9000506,
              10.9042333
            ],
            [
              76.900115,
              10.9042333
            ],
            [
              76.9001123,
              10.9042544
            ]
          ]
        ]
      }
    },
    {
      "type": "Feature",
      "properties": {
        "osm_id": "380829757",
        "name": "Corporate and Industry Relations",
        "building": "university",
        "amenity": null,
        "levels": null
      },
      "geometry": {
        "type": "Polygon",
        "coordinates": [
          [
            [
              76.9016197,
              10.9055238
            ],
            [
              76.9016063,
              10.9056845
            ],
            [
              76.9017753,
              10.9057082
            ],
            [
              76.9017807,
              10.9056661
            ],
            [
              76.9019872,
              10.9056819
            ],
            [
              76.9019845,
              10.9057187
            ],
            [
              76.9021535,
              10.9057398
            ],
            [
              76.9021696,
              10.9055739
            ],
            [
              76.9022501,
              10.9055765
            ],
            [
              76.9022688,
              10.9054343
            ],
            [
              76.9021964,
              10.9054211
            ],
            [
              76.9022205,
              10.9052447
            ],
            [
              76.9020569,
              10.9052236
            ],
            [
              76.9020677,
              10.905113
            ],
            [
              76.9018021,
              10.905084
            ],
            [
              76.9017887,
              10.9051946
            ],
            [
              76.9016492,
              10.9051867
            ],
            [
              76.9016331,
              10.9053605
            ],
            [
              76.9015419,
              10.9053474
            ],
            [
              76.9015259,
              10.9055159
            ],
            [
              76.9016197,
              10.9055238
            ]
          ]
        ]
      }
    },
    {
      "type": "Feature",
      "properties": {
        "osm_id": "380829758",
        "name": "Auditorium",
        "building": "university",
        "amenity": null,
        "levels": null
      },
      "geometry": {
        "type": "Polygon",
        "coordinates": [
          [
            [
              76.9023761,
              10.9049365
            ],
            [
              76.9027248,
              10.9049655
            ],
            [
              76.9028053,
              10.9040516
            ],
            [
              76.9024619,
              10.9040226
            ],
            [
              76.9023761,
              10.9049365
            ]
          ]
        ]
      }
    },
    {
      "type": "Feature",
      "properties": {
        "osm_id": "380829759",
        "name": "Amrita School of Business",
        "building": "university",
        "amenity": null,
        "levels": null
      },
      "geometry": {
        "type": "Polygon",
        "coordinates": [
          [
            [
              76.9015956,
              10.9046837
            ],
            [
              76.9020006,
              10.9047258
            ],
            [
              76.9020462,
              10.9042386
            ],
            [
              76.9020194,
              10.9042438
            ],
            [
              76.9020301,
              10.9041674
            ],
            [
              76.9019443,
              10.9041622
            ],
            [
              76.9019362,
              10.9042359
            ],
            [
              76.9016439,
              10.9041964
            ],
            [
              76.9015956,
              10.9046837
            ]
          ]
        ]
      }
    },
    {
      "type": "Feature",
      "properties": {
        "osm_id": "380829760",
        "name": "MBA Canteen",
        "building": "yes",
        "amenity": "restaurant",
        "levels": null
      },
      "geometry": {
        "type": "Polygon",
        "coordinates": [
          [
            [
              76.9021508,
              10.9047469
            ],
            [
              76.9023037,
              10.9047679
            ],
            [
              76.9023144,
              10.9046705
            ],
            [
              76.9023439,
              10.9046679
            ],
            [
              76.9023573,
              10.9045414
            ],
            [
              76.9022822,
              10.9045335
            ],
            [
              76.9022876,
              10.9044914
            ],
            [
              76.9022232,
              10.9044835
            ],
            [
              76.9022179,
              10.9045335
            ],
            [
              76.9021428,
              10.904523
            ],
            [
              76.902132,
              10.9046494
            ],
            [
              76.9021615,
              10.9046547
            ],
            [
              76.9021508,
              10.9047469
            ]
          ]
        ]
      }
    },
    {
      "type": "Feature",
      "properties": {
        "osm_id": "380925377",
        "name": "Yagnavalkya Bhavanam Annexe",
        "building": "yes",
        "amenity": null,
        "levels": null
      },
      "geometry": {
        "type": "Polygon",
        "coordinates": [
          [
            [
              76.904797,
              10.9030533
            ],
            [
              76.9052208,
              10.9031007
            ],
            [
              76.9052744,
              10.9026371
            ],
            [
              76.9048399,
              10.9026055
            ],
            [
              76.904797,
              10.9030533
            ]
          ]
        ]
      }
    },
    {
      "type": "Feature",
      "properties": {
        "osm_id": "380925379",
        "name": "Building_380925379",
        "building": "university",
        "amenity": null,
        "levels": null
      },
      "geometry": {
        "type": "Polygon",
        "coordinates": [
          [
            [
              76.9041211,
              10.9029953
            ],
            [
              76.9044322,
              10.9030217
            ],
            [
              76.904459,
              10.9027794
            ],
            [
              76.9041425,
              10.902753
            ],
            [
              76.9041211,
              10.9029953
            ]
          ]
        ]
      }
    },
    {
      "type": "Feature",
      "properties": {
        "osm_id": "380925380",
        "name": "Building_380925380",
        "building": "university",
        "amenity": null,
        "levels": null
      },
      "geometry": {
        "type": "Polygon",
        "coordinates": [
          [
            [
              76.9041479,
              10.9026687
            ],
            [
              76.9045609,
              10.9027056
            ],
            [
              76.9045878,
              10.9025054
            ],
            [
              76.9043303,
              10.9024844
            ],
            [
              76.904341,
              10.9024106
            ],
            [
              76.9042176,
              10.9024001
            ],
            [
              76.9042069,
              10.9024949
            ],
            [
              76.9041586,
              10.9024791
            ],
            [
              76.9041479,
              10.9026687
            ]
          ]
        ]
      }
    },
    {
      "type": "Feature",
      "properties": {
        "osm_id": "380925382",
        "name": "Building_380925382",
        "building": "university",
        "amenity": null,
        "levels": null
      },
      "geometry": {
        "type": "Polygon",
        "coordinates": [
          [
            [
              76.9041801,
              10.9022947
            ],
            [
              76.9045878,
              10.9023316
            ],
            [
              76.9046039,
              10.9021209
            ],
            [
              76.9042015,
              10.9020682
            ],
            [
              76.9041801,
              10.9022947
            ]
          ]
        ]
      }
    },
    {
      "type": "Feature",
      "properties": {
        "osm_id": "531088132",
        "name": "Building_531088132",
        "building": "yes",
        "amenity": null,
        "levels": null
      },
      "geometry": {
        "type": "Polygon",
        "coordinates": [
          [
            [
              76.9019821,
              10.9024221
            ],
            [
              76.9020178,
              10.9020188
            ],
            [
              76.9021414,
              10.9020209
            ],
            [
              76.9020995,
              10.9024324
            ],
            [
              76.9019821,
              10.9024221
            ]
          ]
        ]
      }
    },
    {
      "type": "Feature",
      "properties": {
        "osm_id": "531394576",
        "name": "Shrine",
        "building": "yes",
        "amenity": "place_of_worship",
        "levels": null
      },
      "geometry": {
        "type": "Polygon",
        "coordinates": [
          [
            [
              76.9010064,
              10.9021364
            ],
            [
              76.9010084,
              10.9020546
            ],
            [
              76.9011568,
              10.9020566
            ],
            [
              76.9011547,
              10.9021404
            ],
            [
              76.9010064,
              10.9021364
            ]
          ]
        ]
      }
    },
    {
      "type": "Feature",
      "properties": {
        "osm_id": "546394566",
        "name": "Building_546394566",
        "building": "residential",
        "amenity": null,
        "levels": null
      },
      "geometry": {
        "type": "Polygon",
        "coordinates": [
          [
            [
              76.9011686,
              10.9027511
            ],
            [
              76.9011793,
              10.902674
            ],
            [
              76.901412,
              10.9027012
            ],
            [
              76.9014027,
              10.9027738
            ],
            [
              76.9011686,
              10.9027511
            ]
          ]
        ]
      }
    },
    {
      "type": "Feature",
      "properties": {
        "osm_id": "546394567",
        "name": "Building_546394567",
        "building": "residential",
        "amenity": null,
        "levels": null
      },
      "geometry": {
        "type": "Polygon",
        "coordinates": [
          [
            [
              76.9011673,
              10.9025376
            ],
            [
              76.9011727,
              10.9024816
            ],
            [
              76.901336,
              10.9025035
            ],
            [
              76.901329,
              10.9025595
            ],
            [
              76.9011673,
              10.9025376
            ]
          ]
        ]
      }
    },
    {
      "type": "Feature",
      "properties": {
        "osm_id": "385666028",
        "name": "Building_385666028",
        "building": "residential",
        "amenity": null,
        "levels": null
      },
      "geometry": {
        "type": "Polygon",
        "coordinates": [
          [
            [
              76.8989556,
              10.9088443
            ],
            [
              76.8991272,
              10.9088654
            ],
            [
              76.8991433,
              10.9087442
            ],
            [
              76.8989717,
              10.9087179
            ],
            [
              76.8989556,
              10.9088443
            ]
          ]
        ]
      }
    },
    {
      "type": "Feature",
      "properties": {
        "osm_id": "385666029",
        "name": "Building_385666029",
        "building": "residential",
        "amenity": null,
        "levels": null
      },
      "geometry": {
        "type": "Polygon",
        "coordinates": [
          [
            [
              76.8991809,
              10.9088654
            ],
            [
              76.8993525,
              10.9088812
            ],
            [
              76.8993686,
              10.90876
            ],
            [
              76.899197,
              10.908739
            ],
            [
              76.8991809,
              10.9088654
            ]
          ]
        ]
      }
    },
    {
      "type": "Feature",
      "properties": {
        "osm_id": "385666030",
        "name": "Building_385666030",
        "building": "residential",
        "amenity": null,
        "levels": null
      },
      "geometry": {
        "type": "Polygon",
        "coordinates": [
          [
            [
              76.8989663,
              10.908602
            ],
            [
              76.899138,
              10.9086283
            ],
            [
              76.8991648,
              10.9085072
            ],
            [
              76.8989824,
              10.9084861
            ],
            [
              76.8989663,
              10.908602
            ]
          ]
        ]
      }
    },
    {
      "type": "Feature",
      "properties": {
        "osm_id": "385666031",
        "name": "Building_385666031",
        "building": "residential",
        "amenity": null,
        "levels": null
      },
      "geometry": {
        "type": "Polygon",
        "coordinates": [
          [
            [
              76.8991916,
              10.9086231
            ],
            [
              76.8993686,
              10.9086494
            ],
            [
              76.8993901,
              10.9085283
            ],
            [
              76.8992077,
              10.9085072
            ],
            [
              76.8991916,
              10.9086231
            ]
          ]
        ]
      }
    },
    {
      "type": "Feature",
      "properties": {
        "osm_id": "14124401",
        "name": "Building_14124401",
        "building": "yes",
        "amenity": null,
        "levels": null
      },
      "geometry": {
        "type": "Polygon",
        "coordinates": [
          [
            [
              76.9079433,
              10.8855378
            ],
            [
              76.9083148,
              10.8855904
            ],
            [
              76.9083799,
              10.8851477
            ],
            [
              76.9080084,
              10.885095
            ],
            [
              76.9079433,
              10.8855378
            ]
          ]
        ]
      }
    }
  ]
}