{
  "type": "FeatureCollection",
  "features": [
    {
      "type": "Feature",
      "properties": {
        "name": "Amrita Vishwa Vidyapeetham",
        "amenity": "university",
        "landuse": null
      },
      "geometry": {
        "type": "Polygon",
        "coordinates": [
          [
            [
              76.8944198,
              10.9061291
            ],
            [
              76.8930111,
              10.9052996
            ],
            [
              76.8930253,
              10.9043821
            ],
            [
              76.8930679,
              10.9031477
            ],
            [
              76.8947864,
              10.9035691
            ],
            [
              76.8948293,
              10.9032319
            ],
            [
              76.8948704,
              10.9028527
            ],
            [
              76.8949884,
              10.9019466
            ],
            [
              76.8944841,
              10.9018413
            ],
            [
              76.8939701,
              10.9017008
            ],
            [
              76.8939444,
              10.9015358
            ],
            [
              76.8935799,
              10.9015069
            ],
            [
              76.8936769,
              10.9005766
            ],
            [
              76.8940081,
              10.9005645
            ],
            [
              76.8940138,
              10.9007738
            ],
            [
              76.8945592,
              10.9007456
            ],
            [
              76.89516,
              10.9007246
            ],
            [
              76.8951753,
              10.9013302
            ],
            [
              76.898169,
              10.9015113
            ],
            [
              76.8981701,
              10.899146
            ],
            [
              76.8986362,
              10.8991232
            ],
            [
              76.9000035,
              10.8991046
            ],
            [
              76.9000487,
              10.8975929
            ],
            [
              76.9006101,
              10.8976309
            ],
            [
              76.9005785,
              10.8991552
            ],
            [
              76.903765,
              10.8992925
            ],
            [
              76.9041186,
              10.8993971
            ],
            [
              76.9044619,
              10.8996605
            ],
            [
              76.9047838,
              10.8999766
            ],
            [
              76.9050628,
              10.9003137
            ],
            [
              76.9052948,
              10.9006397
            ],
            [
              76.906381,
              10.9021661
            ],
            [
              76.9063098,
              10.9023759
            ],
            [
              76.9062644,
              10.9037587
            ],
            [
              76.9045478,
              10.9037166
            ],
            [
              76.9042959,
              10.9056918
            ],
            [
              76.9042278,
              10.90595
            ],
            [
              76.9045711,
              10.9067085
            ],
            [
              76.9045925,
              10.907446
            ],
            [
              76.9045496,
              10.9087102
            ],
            [
              76.9041634,
              10.9096162
            ],
            [
              76.9020391,
              10.9093844
            ],
            [
              76.9010073,
              10.9092896
            ],
            [
              76.900621,
              10.9092369
            ],
            [
              76.9003421,
              10.9092158
            ],
            [
              76.9001937,
              10.9091948
            ],
            [
              76.8975759,
              10.9089841
            ],
            [
              76.8976384,
              10.9072774
            ],
            [
              76.8970591,
              10.9072458
            ],
            [
              76.8962389,
              10.907204
            ],
            [
              76.8958733,
              10.906988
            ],
            [
              76.8954933,
              10.9067635
            ],
            [
              76.8949715,
              10.9064551
            ],
            [
              76.8944198,
              10.9061291
            ]
          ]
        ]
      }
    }
  ]
}